[{"OBJECT_NAME":"STARLINK-36184","OBJECT_ID":"2025-293U","EPOCH":"2026-03-09T11:28:32.819232","MEAN_MOTION":14.98351122,"ECCENTRICITY":0.00031945,"INCLINATION":70.0004,"RA_OF_ASC_NODE":95.0902,"ARG_OF_PERICENTER":270.1874,"MEAN_ANOMALY":89.8919,"EPHEMERIS_TYPE":0,"CLASSIFICATION_TYPE":"U","NORAD_CAT_ID":67021,"ELEMENT_SET_NO":999,"REV_AT_EPOCH":1485,"BSTAR":0.00039681348,"MEAN_MOTION_DOT":4.647e-5,"MEAN_MOTION_DDOT":0},{"OBJECT_NAME":"COSMOS 2151","OBJECT_ID":"1991-042A","EPOCH":"2026-03-09T21:12:10.736640","MEAN_MOTION":15.00104908,"ECCENTRICITY":0.00139956,"INCLINATION":82.493,"RA_OF_ASC_NODE":83.4892,"ARG_OF_PERICENTER":63.3058,"MEAN_ANOMALY":296.9597,"EPHEMERIS_TYPE":0,"CLASSIFICATION_TYPE":"U","NORAD_CAT_ID":21422,"ELEMENT_SET_NO":999,"REV_AT_EPOCH":86322,"BSTAR":0.00015116122,"MEAN_MOTION_DOT":1.915e-5,"MEAN_MOTION_DDOT":0}]
